{"fetched_at":"2026-07-06T18:35:44.647Z","source":"https://celestrak.org/NORAD/elements/gp.php?NAME=NUSAT&FORMAT=JSON","constellation":"satellogic","records":[{"OBJECT_NAME":"NUSAT-26 (M SOMERVILLE)","OBJECT_ID":"2022-033AD","EPOCH":"2026-07-06T05:58:18.429024","CLASSIFICATION_TYPE":"U","MEAN_MOTION":15.43005636,"ECCENTRICITY":0.00064556,"INCLINATION":97.2336,"RA_OF_ASC_NODE":266.1898,"ARG_OF_PERICENTER":164.6967,"MEAN_ANOMALY":195.4478,"EPHEMERIS_TYPE":0,"NORAD_CAT_ID":52184,"ELEMENT_SET_NO":999,"REV_AT_EPOCH":10764,"BSTAR":0.00045357396,"MEAN_MOTION_DOT":0.00019947,"MEAN_MOTION_DDOT":0},{"OBJECT_NAME":"NUSAT-33 (ALBANIA-2)","OBJECT_ID":"2023-001AQ","EPOCH":"2026-07-06T06:24:55.470816","CLASSIFICATION_TYPE":"U","MEAN_MOTION":15.28157392,"ECCENTRICITY":0.00056401,"INCLINATION":97.3057,"RA_OF_ASC_NODE":247.8088,"ARG_OF_PERICENTER":352.8633,"MEAN_ANOMALY":7.2526,"EPHEMERIS_TYPE":0,"NORAD_CAT_ID":55047,"ELEMENT_SET_NO":999,"REV_AT_EPOCH":19522,"BSTAR":0.00030911507,"MEAN_MOTION_DOT":0.00008416,"MEAN_MOTION_DDOT":0},{"OBJECT_NAME":"NUSAT-35 (WILLIAMINA)","OBJECT_ID":"2023-001AR","EPOCH":"2026-07-06T07:48:32.353344","CLASSIFICATION_TYPE":"U","MEAN_MOTION":15.35661409,"ECCENTRICITY":0.00115314,"INCLINATION":97.1838,"RA_OF_ASC_NODE":239.5911,"ARG_OF_PERICENTER":41.0321,"MEAN_ANOMALY":319.1788,"EPHEMERIS_TYPE":0,"NORAD_CAT_ID":55048,"ELEMENT_SET_NO":999,"REV_AT_EPOCH":19534,"BSTAR":0.00035781222,"MEAN_MOTION_DOT":0.00012361,"MEAN_MOTION_DDOT":0},{"OBJECT_NAME":"NUSAT-39 (TIKVAH ALPER)","OBJECT_ID":"2023-054Z","EPOCH":"2026-07-06T06:06:42.198048","CLASSIFICATION_TYPE":"U","MEAN_MOTION":15.47668278,"ECCENTRICITY":0.00032429,"INCLINATION":97.3097,"RA_OF_ASC_NODE":97.192,"ARG_OF_PERICENTER":7.1301,"MEAN_ANOMALY":352.9995,"EPHEMERIS_TYPE":0,"NORAD_CAT_ID":56201,"ELEMENT_SET_NO":999,"REV_AT_EPOCH":18140,"BSTAR":0.00047916821,"MEAN_MOTION_DOT":0.00024711,"MEAN_MOTION_DDOT":0},{"OBJECT_NAME":"NUSAT-38 (MARIA AGNESI)","OBJECT_ID":"2023-054AA","EPOCH":"2026-07-06T06:25:21.811584","CLASSIFICATION_TYPE":"U","MEAN_MOTION":15.50782034,"ECCENTRICITY":0.00104429,"INCLINATION":97.3037,"RA_OF_ASC_NODE":97.9054,"ARG_OF_PERICENTER":3.235,"MEAN_ANOMALY":356.8967,"EPHEMERIS_TYPE":0,"NORAD_CAT_ID":56202,"ELEMENT_SET_NO":999,"REV_AT_EPOCH":18146,"BSTAR":0.0005048759,"MEAN_MOTION_DOT":0.00029117,"MEAN_MOTION_DDOT":0},{"OBJECT_NAME":"NUSAT-37 (JOAN CLARKE)","OBJECT_ID":"2023-054AB","EPOCH":"2026-07-06T07:25:04.349568","CLASSIFICATION_TYPE":"U","MEAN_MOTION":15.58983964,"ECCENTRICITY":0.00065545,"INCLINATION":97.2609,"RA_OF_ASC_NODE":94.7677,"ARG_OF_PERICENTER":170.0401,"MEAN_ANOMALY":190.0986,"EPHEMERIS_TYPE":0,"NORAD_CAT_ID":56203,"ELEMENT_SET_NO":999,"REV_AT_EPOCH":18162,"BSTAR":0.00056221847,"MEAN_MOTION_DOT":0.00043796,"MEAN_MOTION_DDOT":0},{"OBJECT_NAME":"NUSAT-40 (C SHOEMAKER)","OBJECT_ID":"2023-084M","EPOCH":"2026-07-06T02:41:22.996608","CLASSIFICATION_TYPE":"U","MEAN_MOTION":15.80452128,"ECCENTRICITY":0.00045386,"INCLINATION":97.4864,"RA_OF_ASC_NODE":335.1783,"ARG_OF_PERICENTER":203.6935,"MEAN_ANOMALY":156.4125,"EPHEMERIS_TYPE":0,"NORAD_CAT_ID":56943,"ELEMENT_SET_NO":999,"REV_AT_EPOCH":17179,"BSTAR":0.0006899558,"MEAN_MOTION_DOT":0.00131902,"MEAN_MOTION_DDOT":0},{"OBJECT_NAME":"NUSAT-41 (C PAYNE-G)","OBJECT_ID":"2023-084N","EPOCH":"2026-07-06T06:55:13.954944","CLASSIFICATION_TYPE":"U","MEAN_MOTION":15.30024212,"ECCENTRICITY":0.00058485,"INCLINATION":97.5541,"RA_OF_ASC_NODE":324.309,"ARG_OF_PERICENTER":247.1833,"MEAN_ANOMALY":112.879,"EPHEMERIS_TYPE":0,"NORAD_CAT_ID":56944,"ELEMENT_SET_NO":999,"REV_AT_EPOCH":17070,"BSTAR":0.00032663433,"MEAN_MOTION_DOT":0.0000942,"MEAN_MOTION_DDOT":0},{"OBJECT_NAME":"NUSAT-42 (M WONENBURGER)","OBJECT_ID":"2023-084AL","EPOCH":"2026-07-06T07:51:00.250272","CLASSIFICATION_TYPE":"U","MEAN_MOTION":15.46234017,"ECCENTRICITY":0.00062027,"INCLINATION":97.5741,"RA_OF_ASC_NODE":332.2482,"ARG_OF_PERICENTER":174.4697,"MEAN_ANOMALY":185.6621,"EPHEMERIS_TYPE":0,"NORAD_CAT_ID":56966,"ELEMENT_SET_NO":999,"REV_AT_EPOCH":17103,"BSTAR":0.00043600086,"MEAN_MOTION_DOT":0.00021389,"MEAN_MOTION_DDOT":0},{"OBJECT_NAME":"NUSAT-44 (MARIA MITCHELL)","OBJECT_ID":"2024-043AA","EPOCH":"2026-07-06T07:23:37.532256","CLASSIFICATION_TYPE":"U","MEAN_MOTION":15.30062745,"ECCENTRICITY":0.00067867,"INCLINATION":97.5476,"RA_OF_ASC_NODE":327.8641,"ARG_OF_PERICENTER":161.2672,"MEAN_ANOMALY":198.882,"EPHEMERIS_TYPE":0,"NORAD_CAT_ID":59122,"ELEMENT_SET_NO":999,"REV_AT_EPOCH":13019,"BSTAR":0.00031914939,"MEAN_MOTION_DOT":0.00009215,"MEAN_MOTION_DDOT":0},{"OBJECT_NAME":"NUSAT-50 (NANCY ROMAN)","OBJECT_ID":"2024-149AB","EPOCH":"2026-07-06T04:48:09.376992","CLASSIFICATION_TYPE":"U","MEAN_MOTION":15.30210559,"ECCENTRICITY":0.00047108,"INCLINATION":97.3779,"RA_OF_ASC_NODE":268.3271,"ARG_OF_PERICENTER":123.4909,"MEAN_ANOMALY":236.6782,"EPHEMERIS_TYPE":0,"NORAD_CAT_ID":60493,"ELEMENT_SET_NO":999,"REV_AT_EPOCH":10503,"BSTAR":0.00031404221,"MEAN_MOTION_DOT":0.00009108,"MEAN_MOTION_DDOT":0},{"OBJECT_NAME":"NUSAT-48 (HENRIETTA LEAVITT)","OBJECT_ID":"2024-149AG","EPOCH":"2026-07-06T04:31:58.795680","CLASSIFICATION_TYPE":"U","MEAN_MOTION":15.30170218,"ECCENTRICITY":0.00039678,"INCLINATION":97.391,"RA_OF_ASC_NODE":268.5926,"ARG_OF_PERICENTER":187.0344,"MEAN_ANOMALY":173.0842,"EPHEMERIS_TYPE":0,"NORAD_CAT_ID":60498,"ELEMENT_SET_NO":999,"REV_AT_EPOCH":10504,"BSTAR":0.00032447524,"MEAN_MOTION_DOT":0.000094,"MEAN_MOTION_DDOT":0},{"OBJECT_NAME":"NUSAT-49 (KLARA DAN VON NEUMANN)","OBJECT_ID":"2024-149AJ","EPOCH":"2026-07-06T03:58:45.783552","CLASSIFICATION_TYPE":"U","MEAN_MOTION":15.30279282,"ECCENTRICITY":0.00015877,"INCLINATION":97.3772,"RA_OF_ASC_NODE":268.3251,"ARG_OF_PERICENTER":190.714,"MEAN_ANOMALY":169.4067,"EPHEMERIS_TYPE":0,"NORAD_CAT_ID":60500,"ELEMENT_SET_NO":999,"REV_AT_EPOCH":10503,"BSTAR":0.00032011616,"MEAN_MOTION_DOT":0.00009303,"MEAN_MOTION_DDOT":0},{"OBJECT_NAME":"NUSAT-45 (UZMASAT-1)","OBJECT_ID":"2025-009AH","EPOCH":"2026-07-06T03:42:56.784960","CLASSIFICATION_TYPE":"U","MEAN_MOTION":15.30276898,"ECCENTRICITY":0.00009421,"INCLINATION":97.3585,"RA_OF_ASC_NODE":268.1853,"ARG_OF_PERICENTER":212.7386,"MEAN_ANOMALY":147.3797,"EPHEMERIS_TYPE":0,"NORAD_CAT_ID":62640,"ELEMENT_SET_NO":999,"REV_AT_EPOCH":8182,"BSTAR":0.00031376864,"MEAN_MOTION_DOT":0.00009116,"MEAN_MOTION_DDOT":0},{"OBJECT_NAME":"NUSAT-52","OBJECT_ID":"2025-276AC","EPOCH":"2026-07-06T04:12:10.196064","CLASSIFICATION_TYPE":"U","MEAN_MOTION":15.19977457,"ECCENTRICITY":0.00020685,"INCLINATION":97.4196,"RA_OF_ASC_NODE":260.4093,"ARG_OF_PERICENTER":336.0329,"MEAN_ANOMALY":24.0809,"EPHEMERIS_TYPE":0,"NORAD_CAT_ID":66692,"ELEMENT_SET_NO":999,"REV_AT_EPOCH":3330,"BSTAR":0.00026577146,"MEAN_MOTION_DOT":0.00005653,"MEAN_MOTION_DDOT":0},{"OBJECT_NAME":"NUSAT-51 (YVONNE BRILL)","OBJECT_ID":"2025-276CC","EPOCH":"2026-07-06T04:18:19.744416","CLASSIFICATION_TYPE":"U","MEAN_MOTION":15.20496177,"ECCENTRICITY":0.00015844,"INCLINATION":97.42,"RA_OF_ASC_NODE":260.5489,"ARG_OF_PERICENTER":298.4613,"MEAN_ANOMALY":61.6463,"EPHEMERIS_TYPE":0,"NORAD_CAT_ID":66740,"ELEMENT_SET_NO":999,"REV_AT_EPOCH":3331,"BSTAR":0.00028081275,"MEAN_MOTION_DOT":0.00006068,"MEAN_MOTION_DDOT":0},{"OBJECT_NAME":"NUSAT-47","OBJECT_ID":"2025-276CF","EPOCH":"2026-07-06T04:26:03.120576","CLASSIFICATION_TYPE":"U","MEAN_MOTION":15.20518498,"ECCENTRICITY":0.00004901,"INCLINATION":97.4177,"RA_OF_ASC_NODE":260.4938,"ARG_OF_PERICENTER":359.288,"MEAN_ANOMALY":0.8354,"EPHEMERIS_TYPE":0,"NORAD_CAT_ID":66743,"ELEMENT_SET_NO":999,"REV_AT_EPOCH":3331,"BSTAR":0.00026893568,"MEAN_MOTION_DOT":0.00005813,"MEAN_MOTION_DDOT":0},{"OBJECT_NAME":"NUSAT-53 (JANE GOODALL)","OBJECT_ID":"2026-067S","EPOCH":"2026-07-05T20:18:46.429344","CLASSIFICATION_TYPE":"U","MEAN_MOTION":15.18782153,"ECCENTRICITY":0.00017152,"INCLINATION":97.4568,"RA_OF_ASC_NODE":145.0894,"ARG_OF_PERICENTER":16.7914,"MEAN_ANOMALY":343.3377,"EPHEMERIS_TYPE":0,"NORAD_CAT_ID":68432,"ELEMENT_SET_NO":999,"REV_AT_EPOCH":1477,"BSTAR":0.00032346892,"MEAN_MOTION_DOT":0.0000666,"MEAN_MOTION_DDOT":0},{"OBJECT_NAME":"NUSAT-54 (BRANCA MARQUES)","OBJECT_ID":"2026-067AC","EPOCH":"2026-07-05T19:59:09.915360","CLASSIFICATION_TYPE":"U","MEAN_MOTION":15.17933119,"ECCENTRICITY":0.00048927,"INCLINATION":97.4553,"RA_OF_ASC_NODE":144.9332,"ARG_OF_PERICENTER":28.9574,"MEAN_ANOMALY":331.193,"EPHEMERIS_TYPE":0,"NORAD_CAT_ID":68442,"ELEMENT_SET_NO":999,"REV_AT_EPOCH":1476,"BSTAR":0.00033832373,"MEAN_MOTION_DOT":0.00006802,"MEAN_MOTION_DDOT":0}]}
